[{"OBJECT_NAME":"JY1SAT (JO-97)","OBJECT_ID":"2018-099AX","EPOCH":"2026-03-09T16:28:19.890048","MEAN_MOTION":15.30302629,"ECCENTRICITY":0.00047232,"INCLINATION":97.4249,"RA_OF_ASC_NODE":131.3625,"ARG_OF_PERICENTER":256.6795,"MEAN_ANOMALY":103.3919,"EPHEMERIS_TYPE":0,"CLASSIFICATION_TYPE":"U","NORAD_CAT_ID":43803,"ELEMENT_SET_NO":999,"REV_AT_EPOCH":39839,"BSTAR":0.00060804308,"MEAN_MOTION_DOT":0.00017774,"MEAN_MOTION_DDOT":0},{"OBJECT_NAME":"STARLINK-31273","OBJECT_ID":"2024-017W","EPOCH":"2026-03-09T16:35:14.996256","MEAN_MOTION":15.30189947,"ECCENTRICITY":0.00013753,"INCLINATION":53.1615,"RA_OF_ASC_NODE":204.5084,"ARG_OF_PERICENTER":74.9705,"MEAN_ANOMALY":285.1448,"EPHEMERIS_TYPE":0,"CLASSIFICATION_TYPE":"U","NORAD_CAT_ID":58846,"ELEMENT_SET_NO":999,"REV_AT_EPOCH":12005,"BSTAR":5.210544e-6,"MEAN_MOTION_DOT":-2.05e-6,"MEAN_MOTION_DDOT":0}]
